[{"OBJECT_NAME":"OBJECT AS","OBJECT_ID":"2024-199AS","EPOCH":"2026-03-09T22:02:20.934240","MEAN_MOTION":15.4118193,"ECCENTRICITY":0.00141686,"INCLINATION":97.3146,"RA_OF_ASC_NODE":300.9729,"ARG_OF_PERICENTER":280.4817,"MEAN_ANOMALY":79.4833,"EPHEMERIS_TYPE":0,"CLASSIFICATION_TYPE":"U","NORAD_CAT_ID":61775,"ELEMENT_SET_NO":999,"REV_AT_EPOCH":11886,"BSTAR":0.0004768324,"MEAN_MOTION_DOT":0.00019789,"MEAN_MOTION_DDOT":0},{"OBJECT_NAME":"ANSER LEADER-S","OBJECT_ID":"2025-009AM","EPOCH":"2026-03-09T17:26:35.310912","MEAN_MOTION":15.37938842,"ECCENTRICITY":0.00014346,"INCLINATION":97.4062,"RA_OF_ASC_NODE":153.827,"ARG_OF_PERICENTER":298.2423,"MEAN_ANOMALY":61.8677,"EPHEMERIS_TYPE":0,"CLASSIFICATION_TYPE":"U","NORAD_CAT_ID":62644,"ELEMENT_SET_NO":999,"REV_AT_EPOCH":6387,"BSTAR":0.00079384372,"MEAN_MOTION_DOT":0.00029611,"MEAN_MOTION_DDOT":0}]
